[Satellite]
VERSION=1.1
NAME=GPS BIIA-23 (PRN 04)
NICKNAME=GPS BIIA-23 (PRN 04)
TLE1=1 22877U 93068A   11059.38680918 -.00000029  00000-0  10000-3 0  5072
TLE2=2 22877  53.7628 193.0178 0094879  39.8553 320.7922  2.00571364127089
